{"type": "FeatureCollection", "features": [ {"type": "Feature", "properties": {"norad_id": 34538, "name": "IRIDIUM 33 DEB", "group": "iridium-33-debris", "lat": -8.348099501445496, "lon": -179.68198950215364, "alt_km": 755.159320034043, "timestamp": "2025-12-25T22:42:17.398445+00:00", "meta": {"OBJECT_NAME": "IRIDIUM 33 DEB", "OBJECT_ID": "1997-051JF", "EPOCH": "2025-12-24T17:48:32.243904", "MEAN_MOTION": 14.42715706, "ECCENTRICITY": 0.00319126, "INCLINATION": 86.2764, "RA_OF_ASC_NODE": 0.2977, "ARG_OF_PERICENTER": 286.3391, "MEAN_ANOMALY": 132.9527, "EPHEMERIS_TYPE": 0, "CLASSIFICATION_TYPE": "U", "NORAD_CAT_ID": 34538, "ELEMENT_SET_NO": 999, "REV_AT_EPOCH": 87929, "BSTAR": 0.00092856968, "MEAN_MOTION_DOT": 3.127e-05, "MEAN_MOTION_DDOT": 0}, "tle": {"line1": "1 34538U 97051JF  25358.74203986  .00003127  00000+0  92857-3 0  9993", "line2": "2 34538  86.2764   0.2977 0031912 286.3391 132.9527 14.42715706879292"}}, "geometry": {"type": "Point", "coordinates": [-179.68198950215364, -8.348099501445496]}}, {"type": "Feature", "properties": {"norad_id": 34540, "name": "IRIDIUM 33 DEB", "group": "iridium-33-debris", "lat": 1.9010521432172816, "lon": -58.308679741195895, "alt_km": 651.2526410595201, "timestamp": "2025-12-25T22:42:17.398456+00:00", "meta": {"OBJECT_NAME": "IRIDIUM 33 DEB", "OBJECT_ID": "1997-051JH", "EPOCH": "2025-12-25T15:06:19.054080", "MEAN_MOTION": 14.75581418, "ECCENTRICITY": 0.0018333, "INCLINATION": 86.3113, "RA_OF_ASC_NODE": 301.7134, "ARG_OF_PERICENTER": 116.628, "MEAN_ANOMALY": 4.6289, "EPHEMERIS_TYPE": 0, "CLASSIFICATION_TYPE": "U", "NORAD_CAT_ID": 34540, "ELEMENT_SET_NO": 999, "REV_AT_EPOCH": 89211, "BSTAR": 0.0017256, "MEAN_MOTION_DOT": 0.00011827, "MEAN_MOTION_DDOT": 0}, "tle": {"line1": "1 34540U 97051JH  25359.62938720  .00011827  00000+0  17256-2 0  9990", "line2": "2 34540  86.3113 301.7134 0018333 116.6280   4.6289 14.75581418892115"}}, "geometry": {"type": "Point", "coordinates": [-58.308679741195895, 1.9010521432172816]}}, {"type": "Feature", "properties": {"norad_id": 34648, "name": "IRIDIUM 33 DEB", "group": "iridium-33-debris", "lat": 3.6595204577344247, "lon": -83.15419342181323, "alt_km": 889.796278613725, "timestamp": "2025-12-25T22:42:17.398466+00:00", "meta": {"OBJECT_NAME": "IRIDIUM 33 DEB", "OBJECT_ID": "1997-051JZ", "EPOCH": "2025-12-24T12:40:05.266272", "MEAN_MOTION": 14.11825085, "ECCENTRICITY": 0.01786115, "INCLINATION": 86.3902, "RA_OF_ASC_NODE": 277.1873, "ARG_OF_PERICENTER": 261.8681, "MEAN_ANOMALY": 96.2208, "EPHEMERIS_TYPE": 0, "CLASSIFICATION_TYPE": "U", "NORAD_CAT_ID": 34648, "ELEMENT_SET_NO": 999, "REV_AT_EPOCH": 85127, "BSTAR": 0.0070051894, "MEAN_MOTION_DOT": 0.00014884, "MEAN_MOTION_DDOT": 0}, "tle": {"line1": "1 34648U 97051JZ  25358.52783873  .00014884  00000+0  70052-2 0  9993", "line2": "2 34648  86.3902 277.1873 0178611 261.8681  96.2208 14.11825085851271"}}, "geometry": {"type": "Point", "coordinates": [-83.15419342181323, 3.6595204577344247]}}, {"type": "Feature", "properties": {"norad_id": 34651, "name": "IRIDIUM 33 DEB", "group": "iridium-33-debris", "lat": 14.372227459372686, "lon": 135.91332405627085, "alt_km": 891.8910252926553, "timestamp": "2025-12-25T22:42:17.398476+00:00", "meta": {"OBJECT_NAME": "IRIDIUM 33 DEB", "OBJECT_ID": "1997-051KC", "EPOCH": "2025-12-25T15:53:57.959232", "MEAN_MOTION": 14.26027654, "ECCENTRICITY": 0.0142018, "INCLINATION": 86.2827, "RA_OF_ASC_NODE": 135.0795, "ARG_OF_PERICENTER": 163.1805, "MEAN_ANOMALY": 197.4168, "EPHEMERIS_TYPE": 0, "CLASSIFICATION_TYPE": "U", "NORAD_CAT_ID": 34651, "ELEMENT_SET_NO": 999, "REV_AT_EPOCH": 86080, "BSTAR": 0.0036817, "MEAN_MOTION_DOT": 9.797e-05, "MEAN_MOTION_DDOT": 0}, "tle": {"line1": "1 34651U 97051KC  25359.66247638  .00009797  00000+0  36817-2 0  9995", "line2": "2 34651  86.2827 135.0795 0142018 163.1805 197.4168 14.26027654860809"}}, "geometry": {"type": "Point", "coordinates": [135.91332405627085, 14.372227459372686]}}, {"type": "Feature", "properties": {"norad_id": 34652, "name": "IRIDIUM 33 DEB", "group": "iridium-33-debris", "lat": -15.059501405026909, "lon": -26.868160198277753, "alt_km": 692.5422994333849, "timestamp": "2025-12-25T22:42:17.398485+00:00", "meta": {"OBJECT_NAME": "IRIDIUM 33 DEB", "OBJECT_ID": "1997-051KD", "EPOCH": "2025-12-25T04:47:40.914240", "MEAN_MOTION": 14.62168979, "ECCENTRICITY": 0.0025437, "INCLINATION": 86.3321, "RA_OF_ASC_NODE": 334.4529, "ARG_OF_PERICENTER": 252.4347, "MEAN_ANOMALY": 126.6927, "EPHEMERIS_TYPE": 0, "CLASSIFICATION_TYPE": "U", "NORAD_CAT_ID": 34652, "ELEMENT_SET_NO": 999, "REV_AT_EPOCH": 88666, "BSTAR": 0.0010092, "MEAN_MOTION_DOT": 5.122e-05, "MEAN_MOTION_DDOT": 0}, "tle": {"line1": "1 34652U 97051KD  25359.19977910  .00005122  00000+0  10092-2 0  9992", "line2": "2 34652  86.3321 334.4529 0025437 252.4347 126.6927 14.62168979886663"}}, "geometry": {"type": "Point", "coordinates": [-26.868160198277753, -15.059501405026909]}}, {"type": "Feature", "properties": {"norad_id": 34690, "name": "IRIDIUM 33 DEB", "group": "iridium-33-debris", "lat": -55.17851343966581, "lon": -143.52327779275734, "alt_km": 718.3006393653332, "timestamp": "2025-12-25T22:42:17.398496+00:00", "meta": {"OBJECT_NAME": "IRIDIUM 33 DEB", "OBJECT_ID": "1997-051KM", "EPOCH": "2025-12-24T20:02:14.768160", "MEAN_MOTION": 14.55137496, "ECCENTRICITY": 0.00094344, "INCLINATION": 86.3772, "RA_OF_ASC_NODE": 31.7337, "ARG_OF_PERICENTER": 348.828, "MEAN_ANOMALY": 189.5757, "EPHEMERIS_TYPE": 0, "CLASSIFICATION_TYPE": "U", "NORAD_CAT_ID": 34690, "ELEMENT_SET_NO": 999, "REV_AT_EPOCH": 88270, "BSTAR": 0.00039831575, "MEAN_MOTION_DOT": 1.741e-05, "MEAN_MOTION_DDOT": 0}, "tle": {"line1": "1 34690U 97051KM  25358.83489315  .00001741  00000+0  39832-3 0  9998", "line2": "2 34690  86.3772  31.7337 0009434 348.8280 189.5757 14.55137496882706"}}, "geometry": {"type": "Point", "coordinates": [-143.52327779275734, -55.17851343966581]}}, {"type": "Feature", "properties": {"norad_id": 34693, "name": "IRIDIUM 33 DEB", "group": "iridium-33-debris", "lat": -35.338791344359045, "lon": 119.8759419652838, "alt_km": 485.02228296362864, "timestamp": "2025-12-25T22:42:17.398506+00:00", "meta": {"OBJECT_NAME": "IRIDIUM 33 DEB", "OBJECT_ID": "1997-051KQ", "EPOCH": "2025-12-25T03:00:18.455904", "MEAN_MOTION": 15.31024765, "ECCENTRICITY": 0.00096503, "INCLINATION": 86.304, "RA_OF_ASC_NODE": 297.6587, "ARG_OF_PERICENTER": 31.5304, "MEAN_ANOMALY": 342.4375, "EPHEMERIS_TYPE": 0, "CLASSIFICATION_TYPE": "U", "NORAD_CAT_ID": 34693, "ELEMENT_SET_NO": 999, "REV_AT_EPOCH": 89104, "BSTAR": 0.0050386531, "MEAN_MOTION_DOT": 0.00153987, "MEAN_MOTION_DDOT": 0}, "tle": {"line1": "1 34693U 97051KQ  25359.12521361  .00153987  00000+0  50387-2 0  9999", "line2": "2 34693  86.3040 297.6587 0009650  31.5304 342.4375 15.31024765891042"}}, "geometry": {"type": "Point", "coordinates": [119.8759419652838, -35.338791344359045]}}, {"type": "Feature", "properties": {"norad_id": 34696, "name": "IRIDIUM 33 DEB", "group": "iridium-33-debris", "lat": 37.25189646204439, "lon": -161.5322232250057, "alt_km": 623.1064896247981, "timestamp": "2025-12-25T22:42:17.398516+00:00", "meta": {"OBJECT_NAME": "IRIDIUM 33 DEB", "OBJECT_ID": "1997-051KT", "EPOCH": "2025-12-25T02:40:19.490880", "MEAN_MOTION": 14.65659074, "ECCENTRICITY": 0.00738807, "INCLINATION": 86.1858, "RA_OF_ASC_NODE": 21.7643, "ARG_OF_PERICENTER": 125.9017, "MEAN_ANOMALY": 294.9986, "EPHEMERIS_TYPE": 0, "CLASSIFICATION_TYPE": "U", "NORAD_CAT_ID": 34696, "ELEMENT_SET_NO": 999, "REV_AT_EPOCH": 86854, "BSTAR": 0.0042163681, "MEAN_MOTION_DOT": 0.00023946, "MEAN_MOTION_DDOT": 0}, "tle": {"line1": "1 34696U 97051KT  25359.11133670  .00023946  00000+0  42164-2 0  9998", "line2": "2 34696  86.1858  21.7643 0073880 125.9017 294.9986 14.65659074868545"}}, "geometry": {"type": "Point", "coordinates": [-161.5322232250057, 37.25189646204439]}}, {"type": "Feature", "properties": {"norad_id": 34765, "name": "IRIDIUM 33 DEB", "group": "iridium-33-debris", "lat": -70.32634242369873, "lon": 16.77652983737693, "alt_km": 770.6263167117295, "timestamp": "2025-12-25T22:42:17.398526+00:00", "meta": {"OBJECT_NAME": "IRIDIUM 33 DEB", "OBJECT_ID": "1997-051LJ", "EPOCH": "2025-12-23T02:58:27.844896", "MEAN_MOTION": 14.40490027, "ECCENTRICITY": 0.00166531, "INCLINATION": 86.3383, "RA_OF_ASC_NODE": 28.3053, "ARG_OF_PERICENTER": 176.053, "MEAN_ANOMALY": 247.6854, "EPHEMERIS_TYPE": 0, "CLASSIFICATION_TYPE": "U", "NORAD_CAT_ID": 34765, "ELEMENT_SET_NO": 999, "REV_AT_EPOCH": 87763, "BSTAR": 0.00035770807, "MEAN_MOTION_DOT": 1.159e-05, "MEAN_MOTION_DDOT": 0}, "tle": {"line1": "1 34765U 97051LJ  25357.12393339  .00001159  00000+0  35771-3 0  9993", "line2": "2 34765  86.3383  28.3053 0016653 176.0530 247.6854 14.40490027877630"}}, "geometry": {"type": "Point", "coordinates": [16.77652983737693, -70.32634242369873]}}, {"type": "Feature", "properties": {"norad_id": 34833, "name": "IRIDIUM 33 DEB", "group": "iridium-33-debris", "lat": -61.06909003848217, "lon": -128.14385425457132, "alt_km": 739.9391559234728, "timestamp": "2025-12-25T22:42:17.398536+00:00", "meta": {"OBJECT_NAME": "IRIDIUM 33 DEB", "OBJECT_ID": "1997-051MH", "EPOCH": "2025-12-25T03:41:55.955040", "MEAN_MOTION": 14.52445714, "ECCENTRICITY": 0.00212125, "INCLINATION": 86.392, "RA_OF_ASC_NODE": 45.6427, "ARG_OF_PERICENTER": 60.5009, "MEAN_ANOMALY": 2.6128, "EPHEMERIS_TYPE": 0, "CLASSIFICATION_TYPE": "U", "NORAD_CAT_ID": 34833, "ELEMENT_SET_NO": 999, "REV_AT_EPOCH": 87895, "BSTAR": 0.00071681957, "MEAN_MOTION_DOT": 2.951e-05, "MEAN_MOTION_DDOT": 0}, "tle": {"line1": "1 34833U 97051MH  25359.15411985  .00002951  00000+0  71682-3 0  9994", "line2": "2 34833  86.3920  45.6427 0021212  60.5009   2.6128 14.52445714878950"}}, "geometry": {"type": "Point", "coordinates": [-128.14385425457132, -61.06909003848217]}}]}